OBJECT_NAME,OBJECT_ID,EPOCH,MEAN_MOTION,ECCENTRICITY,INCLINATION,RA_OF_ASC_NODE,ARG_OF_PERICENTER,MEAN_ANOMALY,EPHEMERIS_TYPE,CLASSIFICATION_TYPE,NORAD_CAT_ID,ELEMENT_SET_NO,REV_AT_EPOCH,BSTAR,MEAN_MOTION_DOT,MEAN_MOTION_DDOT
HJS-7D,2025-209D,2026-06-13T06:26:16.187424,13.41472539,.0005088,50.0017,12.9093,28.2634,331.8519,0,U,65620,999,3711,.15387141E-3,-.42E-6,0
STARLINK-35247,2025-210A,2026-06-12T21:09:11.164608,15.30211000,.00012506,53.1586,225.0513,72.1901,287.9236,0,U,65622,999,4230,.4630296E-3,.13384E-3,0
STARLINK-35239,2025-210B,2026-06-12T13:58:06.993696,15.34424913,.00012241,53.1590,224.6079,75.1714,284.9424,0,U,65623,999,4228,.85168068E-3,.28531E-3,0
STARLINK-35151,2025-210C,2026-06-12T10:46:49.331712,15.34406235,.00009307,53.1581,223.7727,93.4539,266.6570,0,U,65624,999,4220,.88418187E-3,.29621E-3,0
STARLINK-35153,2025-210D,2026-06-12T21:38:00.816576,15.34411156,.00011749,53.1594,223.0453,88.0629,272.0509,0,U,65625,999,4225,.87724806E-3,.2939E-3,0
STARLINK-35225,2025-210E,2026-06-12T20:37:32.532384,15.34401913,.00012449,53.1566,223.5000,99.9061,260.2082,0,U,65626,999,4232,.62403496E-3,.20768E-3,0
STARLINK-35217,2025-210F,2026-06-12T21:28:57.288864,15.30211672,.00012339,53.1615,225.1304,87.0109,273.1033,0,U,65627,999,4230,.60289337E-3,.17545E-3,0
STARLINK-35128,2025-210G,2026-06-12T20:49:39.507168,15.34408589,.00013828,53.1581,223.5461,64.9872,295.1274,0,U,65628,999,4232,.4763565E-3,.15756E-3,0
STARLINK-35135,2025-210H,2026-06-12T21:23:00.583008,15.34423636,.00011762,53.1585,223.6906,83.7586,276.3550,0,U,65629,999,4232,.68087312E-3,.22715E-3,0
STARLINK-34877,2025-210J,2026-06-12T11:39:00.370080,15.34417989,.00015069,53.1585,225.4262,108.4675,251.6492,0,U,65630,999,4226,.47593821E-3,.15747E-3,0
STARLINK-35104,2025-210K,2026-06-13T07:18:57.875328,15.34419239,.00013375,53.1580,221.2947,83.5543,276.5612,0,U,65631,999,4238,.92108669E-3,.30891E-3,0
STARLINK-35117,2025-210L,2026-06-12T21:33:30.241152,15.30200409,.00013485,53.1577,225.1469,97.8259,262.2895,0,U,65632,999,4230,.54804101E-3,.15907E-3,0
STARLINK-35103,2025-210M,2026-06-13T07:28:03.208800,15.34422843,.00012656,53.1578,221.3358,89.9215,270.1932,0,U,65633,999,4239,.1020411E-2,.34283E-3,0
STARLINK-35123,2025-210N,2026-06-12T21:01:52.494528,15.31736913,.00011684,53.1590,225.0114,84.2715,275.8420,0,U,65634,999,4230,.60721067E-3,.18546E-3,0
STARLINK-35150,2025-210P,2026-06-12T10:29:03.171264,15.30209336,.00012235,53.1617,227.2429,93.4596,266.6545,0,U,65635,999,4223,.68774235E-3,.20071E-3,0
STARLINK-35209,2025-210Q,2026-06-12T21:26:03.383808,15.34406790,.0002089,53.1585,223.7022,92.6388,267.4854,0,U,65636,999,4232,.1048044E-2,.35208E-3,0
STARLINK-35147,2025-210R,2026-06-12T20:46:38.051616,15.34401354,.00009311,53.1568,223.5357,114.3520,245.7579,0,U,65637,999,4232,.57440533E-3,.19081E-3,0
STARLINK-35213,2025-210S,2026-06-12T20:40:34.559040,15.34403119,.00013524,53.1578,223.5071,97.0830,263.0326,0,U,65638,999,4232,.10346689E-2,.34747E-3,0
STARLINK-35127,2025-210T,2026-06-13T07:25:01.771392,15.34420037,.00009931,53.1577,221.3221,83.9873,276.1243,0,U,65639,999,4239,.59589565E-3,.19823E-3,0
STARLINK-35091,2025-210U,2026-06-12T21:10:52.564512,15.34406796,.00010995,53.1584,223.6372,83.5834,276.5293,0,U,65640,999,4232,.85181493E-3,.28519E-3,0
STARLINK-35134,2025-210V,2026-06-12T10:56:35.509920,15.34404758,.00012683,53.1585,225.2396,68.8269,291.2870,0,U,65641,999,4226,.48618529E-3,.16088E-3,0
STARLINK-35109,2025-210W,2026-06-12T10:47:30.010560,15.34403281,.00009394,53.1585,225.2002,40.1670,319.9402,0,U,65642,999,4226,.89764069E-3,.30077E-3,0
STARLINK-35062,2025-210X,2026-06-12T18:33:26.817984,15.34406171,.00012184,53.1587,223.6616,89.9347,270.1795,0,U,65643,999,4231,.63650859E-3,.21194E-3,0
STARLINK-35141,2025-210Y,2026-06-13T06:00:02.000160,15.31713062,.00012523,53.1602,223.4724,79.0331,79.9203,0,U,65644,999,582,-.15525903E-3,-.5182E-4,0
STARLINK-35237,2025-210Z,2026-06-12T21:36:32.149440,15.30213938,.00003276,53.1591,225.1618,15.7369,344.3641,0,U,65645,999,4230,.5838186E-3,.16979E-3,0
STARLINK-35183,2025-210AA,2026-06-12T21:22:52.133088,15.30201157,.00014602,53.1593,225.1021,75.6684,284.4479,0,U,65646,999,4230,.54745825E-3,.1589E-3,0
STARLINK-35202,2025-210AB,2026-06-12T10:43:46.798752,15.34412477,.0001182,53.1595,223.7632,107.7022,252.4110,0,U,65647,999,4228,.53541519E-3,.17764E-3,0
STARLINK-34868,2025-210AC,2026-06-12T20:58:44.993568,15.34407781,.00012906,53.1585,223.5765,84.9866,275.1284,0,U,65648,999,4232,.66279477E-3,.22089E-3,0
STARLINK-35079,2025-210AD,2026-06-12T21:12:13.249152,15.30212819,.00012206,53.1587,225.0525,90.5917,269.5223,0,U,65649,999,4230,.5039126E-3,.14601E-3,0
STARLINK-35328,2025-211A,2026-06-13T02:13:34.635072,15.05659663,.00025602,97.3646,207.1966,115.1642,244.9851,0,U,65652,999,4139,.32770059E-3,.4675E-4,0
