HJS-7D                  
1 65620U 25209D   26164.26824291 -.00000042  00000+0  15387-3 0  9993
2 65620  50.0017  12.9093 0005088  28.2634 331.8519 13.41472539 37115
STARLINK-35247          
1 65622U 25210A   26163.88137922  .00013384  00000+0  46303-3 0  9996
2 65622  53.1586 225.0513 0001250  72.1901 287.9236 15.30211000 42306
STARLINK-35239          
1 65623U 25210B   26163.58202539  .00028531  00000+0  85168-3 0  9993
2 65623  53.1590 224.6079 0001224  75.1714 284.9424 15.34424913 42286
STARLINK-35151          
1 65624U 25210C   26163.44918208  .00029621  00000+0  88418-3 0  9998
2 65624  53.1581 223.7727 0000930  93.4539 266.6570 15.34406235 42206
STARLINK-35153          
1 65625U 25210D   26163.90139834  .00029390  00000+0  87725-3 0  9993
2 65625  53.1594 223.0453 0001174  88.0629 272.0509 15.34411156 42257
STARLINK-35225          
1 65626U 25210E   26163.85940431  .00020768  00000+0  62403-3 0  9997
2 65626  53.1566 223.5000 0001244  99.9061 260.2082 15.34401913 42322
STARLINK-35217          
1 65627U 25210F   26163.89510751  .00017545  00000+0  60289-3 0  9999
2 65627  53.1615 225.1304 0001233  87.0109 273.1033 15.30211672 42306
STARLINK-35128          
1 65628U 25210G   26163.86781837  .00015756  00000+0  47636-3 0  9995
2 65628  53.1581 223.5461 0001382  64.9872 295.1274 15.34408589 42323
STARLINK-35135          
1 65629U 25210H   26163.89097897  .00022715  00000+0  68087-3 0  9991
2 65629  53.1585 223.6906 0001176  83.7586 276.3550 15.34423636 42323
STARLINK-34877          
1 65630U 25210J   26163.48542095  .00015747  00000+0  47594-3 0  9990
2 65630  53.1585 225.4262 0001506 108.4675 251.6492 15.34417989 42269
STARLINK-35104          
1 65631U 25210K   26164.30483652  .00030891  00000+0  92109-3 0  9995
2 65631  53.1580 221.2947 0001337  83.5543 276.5612 15.34419239 42381
STARLINK-35117          
1 65632U 25210L   26163.89826668  .00015907  00000+0  54804-3 0  9998
2 65632  53.1577 225.1469 0001348  97.8259 262.2895 15.30200409 42304
STARLINK-35103          
1 65633U 25210M   26164.31114825  .00034283  00000+0  10204-2 0  9995
2 65633  53.1578 221.3358 0001265  89.9215 270.1932 15.34422843 42394
STARLINK-35123          
1 65634U 25210N   26163.87630202  .00018546  00000+0  60721-3 0  9992
2 65634  53.1590 225.0114 0001168  84.2715 275.8420 15.31736913 42303
STARLINK-35150          
1 65635U 25210P   26163.43684226  .00020071  00000+0  68774-3 0  9992
2 65635  53.1617 227.2429 0001223  93.4596 266.6545 15.30209336 42239
STARLINK-35209          
1 65636U 25210Q   26163.89309472  .00035208  00000+0  10480-2 0  9998
2 65636  53.1585 223.7022 0002089  92.6388 267.4854 15.34406790 42324
STARLINK-35147          
1 65637U 25210R   26163.86571819  .00019081  00000+0  57441-3 0  9992
2 65637  53.1568 223.5357 0000931 114.3520 245.7579 15.34401354 42323
STARLINK-35213          
1 65638U 25210S   26163.86151110  .00034747  00000+0  10347-2 0  9990
2 65638  53.1578 223.5071 0001352  97.0830 263.0326 15.34403119 42321
STARLINK-35127          
1 65639U 25210T   26164.30904828  .00019823  00000+0  59590-3 0  9995
2 65639  53.1577 221.3221 0000993  83.9873 276.1243 15.34420037 42393
STARLINK-35091          
1 65640U 25210U   26163.88255283  .00028519  00000+0  85181-3 0  9990
2 65640  53.1584 223.6372 0001099  83.5834 276.5293 15.34406796 42324
STARLINK-35134          
1 65641U 25210V   26163.45596655  .00016088  00000+0  48619-3 0  9998
2 65641  53.1585 225.2396 0001268  68.8269 291.2870 15.34404758 42260
STARLINK-35109          
1 65642U 25210W   26163.44965290  .00030077  00000+0  89764-3 0  9993
2 65642  53.1585 225.2002 0000939  40.1670 319.9402 15.34403281 42267
STARLINK-35062          
1 65643U 25210X   26163.77322706  .00021194  00000+0  63651-3 0  9996
2 65643  53.1587 223.6616 0001218  89.9347 270.1795 15.34406171 42316
STARLINK-35141          
1 65644U 25210Y   26164.25002315 -.00005182  00000+0 -15526-3 0  9991
2 65644  53.1602 223.4724 0001252  79.0331  79.9203 15.31713062  5825
STARLINK-35237          
1 65645U 25210Z   26163.90037210  .00016979  00000+0  58382-3 0  9996
2 65645  53.1591 225.1618 0000327  15.7369 344.3641 15.30213938 42309
STARLINK-35183          
1 65646U 25210AA  26163.89088117  .00015890  00000+0  54746-3 0  9998
2 65646  53.1593 225.1021 0001460  75.6684 284.4479 15.30201157 42307
STARLINK-35202          
1 65647U 25210AB  26163.44706943  .00017764  00000+0  53542-3 0  9999
2 65647  53.1595 223.7632 0001182 107.7022 252.4110 15.34412477 42283
STARLINK-34868          
1 65648U 25210AC  26163.87413187  .00022089  00000+0  66279-3 0  9999
2 65648  53.1585 223.5765 0001290  84.9866 275.1284 15.34407781 42321
STARLINK-35079          
1 65649U 25210AD  26163.88348668  .00014601  00000+0  50391-3 0  9991
2 65649  53.1587 225.0525 0001220  90.5917 269.5223 15.30212819 42308
STARLINK-35328          
1 65652U 25211A   26164.09276198  .00004675  00000+0  32770-3 0  9999
2 65652  97.3646 207.1966 0002560 115.1642 244.9851 15.05659663 41391
